CCSDS_OMM_VERS,COMMENT,CREATION_DATE,ORIGINATOR,OBJECT_NAME,OBJECT_ID,CENTER_NAME,REF_FRAME,TIME_SYSTEM,MEAN_ELEMENT_THEORY,EPOCH,MEAN_MOTION,ECCENTRICITY,INCLINATION,RA_OF_ASC_NODE,ARG_OF_PERICENTER,MEAN_ANOMALY,EPHEMERIS_TYPE,CLASSIFICATION_TYPE,NORAD_CAT_ID,ELEMENT_SET_NO,REV_AT_EPOCH,BSTAR,MEAN_MOTION_DOT,MEAN_MOTION_DDOT,SEMIMAJOR_AXIS,PERIOD,APOAPSIS,PERIAPSIS,OBJECT_TYPE,RCS_SIZE,COUNTRY_CODE,LAUNCH_DATE,SITE,DECAY_DATE,FILE,GP_ID,TLE_LINE0,TLE_LINE1,TLE_LINE2
2,GENERATED VIA SPACE-TRACK.ORG API,2022-06-08T16:57:44,18 SPCS,STARLINK-1098,2020-001D,EARTH,TEME,UTC,SGP4,2022-06-08T07:47:01.102848,15.0639572,0.0001365,53.0555,18.4249,69.0341,291.0794,0,U,44917,999,13330,5.3433e-05,5.14e-06,0,6925.362,95.592,548.172,546.281,PAYLOAD,LARGE,US,2020-01-07,AFETR,,3485745,205633204,0 STARLINK-1098,1 44917U 20001D   22159.32431832  .00000514  00000-0  53433-4 0  9995,2 44917  53.0555  18.4249 0001365  69.0341 291.0794 15.06395720133306
2,GENERATED VIA SPACE-TRACK.ORG API,2022-06-09T06:01:23,18 SPCS,STARLINK-1098,2020-001D,EARTH,TEME,UTC,SGP4,2022-06-08T20:31:19.615296,15.06400863,0.0001409,53.0557,16.0425,70.3267,289.7874,0,U,44917,999,13338,0.00012182,1.534e-05,0,6925.346,95.592,548.187,546.235,PAYLOAD,LARGE,US,2020-01-07,AFETR,,3486517,205670201,0 STARLINK-1098,1 44917U 20001D   22159.85508814  .00001534  00000-0  12182-3 0  9996,2 44917  53.0557  16.0425 0001409  70.3267 289.7874 15.06400863133385
2,GENERATED VIA SPACE-TRACK.ORG API,2022-06-09T07:16:15,18 SPCS,STARLINK-1098,2020-001D,EARTH,TEME,UTC,SGP4,2022-06-09T01:17:57.070464,15.06396245,0.0001266,53.0554,15.1489,68.67,291.4424,0,U,44917,999,13341,6.9331e-05,7.51e-06,0,6925.36,95.592,548.102,546.348,PAYLOAD,LARGE,US,2020-01-07,AFETR,,3486990,205685981,0 STARLINK-1098,1 44917U 20001D   22160.05413276  .00000751  00000-0  69331-4 0  9996,2 44917  53.0554  15.1489 0001266  68.6700 291.4424 15.06396245133418
2,GENERATED VIA SPACE-TRACK.ORG API,2022-06-09T19:12:48,18 SPCS,STARLINK-1098,2020-001D,EARTH,TEME,UTC,SGP4,2022-06-09T14:02:16.316448,15.06395019,0.0001449,53.0551,12.7663,76.676,283.4391,0,U,44917,999,13349,1.0758e-06,-2.65e-06,0,6925.364,95.592,548.232,546.225,PAYLOAD,LARGE,US,2020-01-07,AFETR,,3488214,205733463,0 STARLINK-1098,1 44917U 20001D   22160.58491107 -.00000265  00000-0  10758-5 0  9994,2 44917  53.0551  12.7663 0001449  76.6760 283.4391 15.06395019133490
2,GENERATED VIA SPACE-TRACK.ORG API,2022-06-10T05:30:24,18 SPCS,STARLINK-1098,2020-001D,EARTH,TEME,UTC,SGP4,2022-06-09T17:13:21.058176,15.06395794,0.0001481,53.0562,12.1711,72.2765,287.8386,0,U,44917,999,13351,1.0398e-05,-1.27e-06,0,6925.361,95.592,548.252,546.201,PAYLOAD,LARGE,US,2020-01-07,AFETR,,3489040,205778885,0 STARLINK-1098,1 44917U 20001D   22160.71760484 -.00000127  00000-0  10398-4 0  9992,2 44917  53.0562  12.1711 0001481  72.2765 287.8386 15.06395794133518
2,GENERATED VIA SPACE-TRACK.ORG API,2022-06-10T18:29:59,18 SPCS,STARLINK-1098,2020-001D,EARTH,TEME,UTC,SGP4,2022-06-10T07:33:11.717280,15.06398194,0.0001356,53.0558,9.4903,75.3526,284.7613,0,U,44917,999,13360,0.00016903,2.237e-05,0,6925.354,95.592,548.158,546.28,PAYLOAD,LARGE,US,2020-01-07,AFETR,,3489795,205820649,0 STARLINK-1098,1 44917U 20001D   22161.31471895  .00002237  00000-0  16903-3 0  9994,2 44917  53.0558   9.4903 0001356  75.3526 284.7613 15.06398194133601
2,GENERATED VIA SPACE-TRACK.ORG API,2022-06-10T15:16:11,18 SPCS,STARLINK-1098,2020-001D,EARTH,TEME,UTC,SGP4,2022-06-10T07:33:11.717280,15.06398194,0.0001356,53.0558,9.4903,75.3526,284.7613,0,U,44917,999,13360,0.00016903,2.237e-05,0,6925.354,95.592,548.158,546.28,PAYLOAD,LARGE,US,2020-01-07,AFETR,,3489731,205800083,0 STARLINK-1098,1 44917U 20001D   22161.31471895  .00002237  00000-0  16903-3 0  9994,2 44917  53.0558   9.4903 0001356  75.3526 284.7613 15.06398194133601
2,GENERATED VIA SPACE-TRACK.ORG API,2022-06-10T22:56:13,18 SPCS,STARLINK-1098,2020-001D,EARTH,TEME,UTC,SGP4,2022-06-10T20:17:31.566336,15.06375754,0.0001812,53.0554,7.1071,80.59,279.5293,0,U,44917,999,13368,0.00029819,4.16e-05,0,6925.423,95.594,548.543,546.033,PAYLOAD,LARGE,US,2020-01-07,AFETR,,3490120,205833535,0 STARLINK-1098,1 44917U 20001D   22161.84550424  .00004160  00000-0  29819-3 0  9995,2 44917  53.0554   7.1071 0001812  80.5900 279.5293 15.06375754133680
2,GENERATED VIA SPACE-TRACK.ORG API,2022-06-11T07:36:13,18 SPCS,STARLINK-1098,2020-001D,EARTH,TEME,UTC,SGP4,2022-06-11T01:04:08.122080,15.06401658,0.0001583,53.0555,6.2135,73.8219,286.2944,0,U,44917,999,13371,-5.1993e-05,-1.056e-05,0,6925.343,95.592,548.305,546.112,PAYLOAD,LARGE,US,2020-01-07,AFETR,,3490998,205879200,0 STARLINK-1098,1 44917U 20001D   22162.04453845 -.00001056  00000-0 -51993-4 0  9999,2 44917  53.0555   6.2135 0001583  73.8219 286.2944 15.06401658133710
2,GENERATED VIA SPACE-TRACK.ORG API,2022-06-12T03:20:52,18 SPCS,STARLINK-1098,2020-001D,EARTH,TEME,UTC,SGP4,2022-06-11T20:10:37.187616,15.06392014,0.0001564,53.0559,2.639,76.5329,283.5834,0,U,44917,999,13383,-1.2096e-05,-4.62e-06,0,6925.373,95.593,548.321,546.155,PAYLOAD,LARGE,US,2020-01-07,AFETR,,3492149,205925163,0 STARLINK-1098,1 44917U 20001D   22162.84070819 -.00000462  00000-0 -12096-4 0  9994,2 44917  53.0559   2.6390 0001564  76.5329 283.5834 15.06392014133834
2,GENERATED VIA SPACE-TRACK.ORG API,2022-06-11T22:46:12,18 SPCS,STARLINK-1098,2020-001D,EARTH,TEME,UTC,SGP4,2022-06-11T20:10:37.187616,15.06392014,0.0001564,53.0559,2.639,76.5329,283.5834,0,U,44917,999,13383,-1.2096e-05,-4.62e-06,0,6925.373,95.593,548.321,546.155,PAYLOAD,LARGE,US,2020-01-07,AFETR,,3492000,205901499,0 STARLINK-1098,1 44917U 20001D   22162.84070819 -.00000462  00000-0 -12096-4 0  9994,2 44917  53.0559   2.6390 0001564  76.5329 283.5834 15.06392014133834
2,GENERATED VIA SPACE-TRACK.ORG API,2022-06-12T18:45:50,18 SPCS,STARLINK-1098,2020-001D,EARTH,TEME,UTC,SGP4,2022-06-12T13:41:32.756064,15.06401586,0.0001502,53.0556,359.3626,74.6399,285.4756,0,U,44917,999,13394,2.6683e-05,1.16e-06,0,6925.344,95.592,548.249,546.169,PAYLOAD,LARGE,US,2020-01-07,AFETR,,3493305,205976260,0 STARLINK-1098,1 44917U 20001D   22163.57051801  .00000116  00000-0  26683-4 0  9996,2 44917  53.0556 359.3626 0001502  74.6399 285.4756 15.06401586133944
2,GENERATED VIA SPACE-TRACK.ORG API,2022-06-12T15:26:13,18 SPCS,STARLINK-1098,2020-001D,EARTH,TEME,UTC,SGP4,2022-06-12T13:41:32.756064,15.06401586,0.0001502,53.0556,359.3626,74.6399,285.4756,0,U,44917,999,13394,2.6683e-05,1.16e-06,0,6925.344,95.592,548.249,546.169,PAYLOAD,LARGE,US,2020-01-07,AFETR,,3493077,205951345,0 STARLINK-1098,1 44917U 20001D   22163.57051801  .00000116  00000-0  26683-4 0  9996,2 44917  53.0556 359.3626 0001502  74.6399 285.4756 15.06401586133944
2,GENERATED VIA SPACE-TRACK.ORG API,2022-06-13T03:17:20,18 SPCS,STARLINK-1098,2020-001D,EARTH,TEME,UTC,SGP4,2022-06-12T20:03:42.188544,15.06400085,0.0001431,53.0555,358.1708,71.3513,288.7632,0,U,44917,999,13398,0.00011351,1.41e-05,0,6925.348,95.592,548.204,546.222,PAYLOAD,LARGE,US,2020-01-07,AFETR,,3493781,206011622,0 STARLINK-1098,1 44917U 20001D   22163.83590496  .00001410  00000-0  11351-3 0  9996,2 44917  53.0555 358.1708 0001431  71.3513 288.7632 15.06400085133980
2,GENERATED VIA SPACE-TRACK.ORG API,2022-06-13T17:27:05,18 SPCS,STARLINK-1098,2020-001D,EARTH,TEME,UTC,SGP4,2022-06-13T05:36:56.153664,15.06404085,0.0001422,53.0556,356.3838,71.8265,288.2879,0,U,44917,999,13404,0.00011918,1.494e-05,0,6925.336,95.592,548.186,546.216,PAYLOAD,LARGE,US,2020-01-07,AFETR,,3494620,206056529,0 STARLINK-1098,1 44917U 20001D   22164.23398326  .00001494  00000-0  11918-3 0  9990,2 44917  53.0556 356.3838 0001422  71.8265 288.2879 15.06404085134044
2,GENERATED VIA SPACE-TRACK.ORG API,2022-06-14T08:42:39,18 SPCS,STARLINK-1098,2020-001D,EARTH,TEME,UTC,SGP4,2022-06-13T19:56:47.243040,15.06403115,0.0001378,53.0553,353.7034,71.5807,288.5332,0,U,44917,999,13413,0.00019424,2.613e-05,0,6925.339,95.592,548.158,546.25,PAYLOAD,LARGE,US,2020-01-07,AFETR,,3495597,206102635,0 STARLINK-1098,1 44917U 20001D   22164.83110235  .00002613  00000-0  19424-3 0  9991,2 44917  53.0553 353.7034 0001378  71.5807 288.5332 15.06403115134139
2,GENERATED VIA SPACE-TRACK.ORG API,2022-06-13T22:46:13,18 SPCS,STARLINK-1098,2020-001D,EARTH,TEME,UTC,SGP4,2022-06-13T19:56:47.243040,15.06403115,0.0001378,53.0553,353.7034,71.5807,288.5332,0,U,44917,999,13413,0.00019424,2.613e-05,0,6925.339,95.592,548.158,546.25,PAYLOAD,LARGE,US,2020-01-07,AFETR,,3494920,206068883,0 STARLINK-1098,1 44917U 20001D   22164.83110235  .00002613  00000-0  19424-3 0  9991,2 44917  53.0553 353.7034 0001378  71.5807 288.5332 15.06403115134139
2,GENERATED VIA SPACE-TRACK.ORG API,2022-06-14T07:26:12,18 SPCS,STARLINK-1098,2020-001D,EARTH,TEME,UTC,SGP4,2022-06-13T23:07:52.537728,15.06397411,0.0001436,53.0557,353.1082,74.1394,285.9754,0,U,44917,999,13415,0.00014716,1.911e-05,0,6925.356,95.592,548.216,546.227,PAYLOAD,LARGE,US,2020-01-07,AFETR,,3495484,206081409,0 STARLINK-1098,1 44917U 20001D   22164.96380252  .00001911  00000-0  14716-3 0  9992,2 44917  53.0557 353.1082 0001436  74.1394 285.9754 15.06397411134157
2,GENERATED VIA SPACE-TRACK.ORG API,2022-06-14T19:02:48,18 SPCS,STARLINK-1098,2020-001D,EARTH,TEME,UTC,SGP4,2022-06-14T11:52:11.421696,15.06402762,0.0001472,53.0561,350.7258,76.3818,283.7335,0,U,44917,999,13423,8.6913e-05,1.013e-05,0,6925.34,95.592,548.225,546.186,PAYLOAD,LARGE,US,2020-01-07,AFETR,,3495970,206136014,0 STARLINK-1098,1 44917U 20001D   22165.49457664  .00001013  00000-0  86913-4 0  9995,2 44917  53.0561 350.7258 0001472  76.3818 283.7335 15.06402762134231
2,GENERATED VIA SPACE-TRACK.ORG API,2022-06-15T07:36:11,18 SPCS,STARLINK-1098,2020-001D,EARTH,TEME,UTC,SGP4,2022-06-14T23:00:58.572864,15.06395841,0.0001439,53.0565,348.6403,74.7583,285.3565,0,U,44917,999,13430,-1.6127e-05,-5.22e-06,0,6925.361,95.592,548.223,546.23,PAYLOAD,LARGE,US,2020-01-07,AFETR,,3496431,206178389,0 STARLINK-1098,1 44917U 20001D   22165.95901126 -.00000522  00000-0 -16127-4 0  9999,2 44917  53.0565 348.6403 0001439  74.7583 285.3565 15.06395841134307
